{
    "links": {
        "self": "http://www.neowsapp.com/rest/v1/neo/3841964?api_key=iIulBulltgU6a56xZRHN4H3l9WmuAYTsLGpBGhQ2"
    },
    "id": "3841964",
    "neo_reference_id": "3841964",
    "name": "(2019 KG)",
    "designation": "2019 KG",
    "nasa_jpl_url": "http://ssd.jpl.nasa.gov/sbdb.cgi?sstr=3841964",
    "absolute_magnitude_h": 23.7,
    "estimated_diameter": {
        "kilometers": {
            "estimated_diameter_min": 0.0483676488,
            "estimated_diameter_max": 0.1081533507
        },
        "meters": {
            "estimated_diameter_min": 48.3676488219,
            "estimated_diameter_max": 108.1533506775
        },
        "miles": {
            "estimated_diameter_min": 0.0300542543,
            "estimated_diameter_max": 0.0672033557
        },
        "feet": {
            "estimated_diameter_min": 158.6865169607,
            "estimated_diameter_max": 354.8338390368
        }
    },
    "is_potentially_hazardous_asteroid": false,
    "close_approach_data": [
        {
            "close_approach_date": "2019-06-05",
            "close_approach_date_full": "2019-Jun-05 20:16",
            "epoch_date_close_approach": 1559765760000,
            "relative_velocity": {
                "kilometers_per_second": "11.811706528",
                "kilometers_per_hour": "42522.1435009361",
                "miles_per_hour": "26421.6063325678"
            },
            "miss_distance": {
                "astronomical": "0.053375655",
                "lunar": "20.763129795",
                "kilometers": "7984884.29785485",
                "miles": "4961577.03130293"
            },
            "orbiting_body": "Earth"
        }
    ],
    "orbital_data": {
        "orbit_id": "4",
        "orbit_determination_date": "2019-06-03 06:43:35",
        "first_observation_date": "2019-05-23",
        "last_observation_date": "2019-06-03",
        "data_arc_in_days": 11,
        "observations_used": 44,
        "orbit_uncertainty": "9",
        "minimum_orbit_intersection": ".00119407",
        "jupiter_tisserand_invariant": "4.128",
        "epoch_osculation": "2458627.5",
        "eccentricity": ".500947699096045",
        "semi_major_axis": "1.646200658297862",
        "inclination": "6.457516866374234",
        "ascending_node_longitude": "68.74705782406294",
        "orbital_period": "771.476290168016",
        "perihelion_distance": ".8215402262731534",
        "perihelion_argument": "245.0272032404521",
        "aphelion_distance": "2.470861090322571",
        "perihelion_time": "2458684.197302442213",
        "mean_anomaly": "333.5428954339589",
        "mean_motion": ".4666378015604308",
        "equinox": "J2000",
        "orbit_class": {
            "orbit_class_type": "APO",
            "orbit_class_description": "Near-Earth asteroid orbits which cross the Earth’s orbit similar to that of 1862 Apollo",
            "orbit_class_range": "a (semi-major axis) > 1.0 AU; q (perihelion) < 1.017 AU"
        }
    },
    "is_sentry_object": false
}